{"type": "FeatureCollection", "features": [ {"type": "Feature", "properties": {"norad_id": 38155, "name": "FENGYUN 1C DEB", "group": "fengyun-1c-debris", "lat": -81.06383572572351, "lon": -40.38150466008315, "alt_km": 865.845953674806, "timestamp": "2025-12-10T05:46:14.112895+00:00", "meta": {"OBJECT_NAME": "FENGYUN 1C DEB", "OBJECT_ID": "1999-025ERC", "EPOCH": "2025-12-06T22:58:54.354720", "MEAN_MOTION": 14.24970128, "ECCENTRICITY": 0.0093852, "INCLINATION": 98.4484, "RA_OF_ASC_NODE": 245.5141, "ARG_OF_PERICENTER": 144.1944, "MEAN_ANOMALY": 216.5577, "EPHEMERIS_TYPE": 0, "CLASSIFICATION_TYPE": "U", "NORAD_CAT_ID": 38155, "ELEMENT_SET_NO": 999, "REV_AT_EPOCH": 63693, "BSTAR": 0.0030805, "MEAN_MOTION_DOT": 7.51e-05, "MEAN_MOTION_DDOT": 0}, "tle": {"line1": "1 38155U 99025ERC 25340.95757355  .00007510  00000+0  30805-2 0  9997", "line2": "2 38155  98.4484 245.5141 0093852 144.1944 216.5577 14.24970128636935"}}, "geometry": {"type": "Point", "coordinates": [-40.38150466008315, -81.06383572572351]}}, {"type": "Feature", "properties": {"norad_id": 38157, "name": "FENGYUN 1C DEB", "group": "fengyun-1c-debris", "lat": -9.631417852907294, "lon": -107.382109285151, "alt_km": 949.9112553061605, "timestamp": "2025-12-10T05:46:14.112905+00:00", "meta": {"OBJECT_NAME": "FENGYUN 1C DEB", "OBJECT_ID": "1999-025ERE", "EPOCH": "2025-12-08T04:50:07.159200", "MEAN_MOTION": 14.21711461, "ECCENTRICITY": 0.0273982, "INCLINATION": 99.6564, "RA_OF_ASC_NODE": 248.73, "ARG_OF_PERICENTER": 127.092, "MEAN_ANOMALY": 235.5637, "EPHEMERIS_TYPE": 0, "CLASSIFICATION_TYPE": "U", "NORAD_CAT_ID": 38157, "ELEMENT_SET_NO": 999, "REV_AT_EPOCH": 76183, "BSTAR": 0.0008650413, "MEAN_MOTION_DOT": 2.73e-05, "MEAN_MOTION_DDOT": 0}, "tle": {"line1": "1 38157U 99025ERE 25342.20147175  .00002730  00000+0  86504-3 0  9999", "line2": "2 38157  99.6564 248.7300 0273982 127.0920 235.5637 14.21711461761835"}}, "geometry": {"type": "Point", "coordinates": [-107.382109285151, -9.631417852907294]}}, {"type": "Feature", "properties": {"norad_id": 38159, "name": "FENGYUN 1C DEB", "group": "fengyun-1c-debris", "lat": -43.67492512718755, "lon": 46.81943748698871, "alt_km": 911.0413878540348, "timestamp": "2025-12-10T05:46:14.112915+00:00", "meta": {"OBJECT_NAME": "FENGYUN 1C DEB", "OBJECT_ID": "1999-025ERG", "EPOCH": "2025-12-04T22:05:20.152032", "MEAN_MOTION": 14.03448484, "ECCENTRICITY": 0.005704, "INCLINATION": 99.3156, "RA_OF_ASC_NODE": 230.39, "ARG_OF_PERICENTER": 2.347, "MEAN_ANOMALY": 357.7952, "EPHEMERIS_TYPE": 0, "CLASSIFICATION_TYPE": "U", "NORAD_CAT_ID": 38159, "ELEMENT_SET_NO": 999, "REV_AT_EPOCH": 83002, "BSTAR": 0.0010527, "MEAN_MOTION_DOT": 1.625e-05, "MEAN_MOTION_DDOT": 0}, "tle": {"line1": "1 38159U 99025ERG 25338.92037213  .00001625  00000+0  10527-2 0  9999", "line2": "2 38159  99.3156 230.3900 0057040   2.3470 357.7952 14.03448484830021"}}, "geometry": {"type": "Point", "coordinates": [46.81943748698871, -43.67492512718755]}}, {"type": "Feature", "properties": {"norad_id": 38163, "name": "FENGYUN 1C DEB", "group": "fengyun-1c-debris", "lat": 55.92820156432465, "lon": -145.49462365025596, "alt_km": 900.3505617154815, "timestamp": "2025-12-10T05:46:14.112924+00:00", "meta": {"OBJECT_NAME": "FENGYUN 1C DEB", "OBJECT_ID": "1999-025ERL", "EPOCH": "2025-12-08T20:43:41.634048", "MEAN_MOTION": 14.05900576, "ECCENTRICITY": 0.0075743, "INCLINATION": 99.1292, "RA_OF_ASC_NODE": 19.3646, "ARG_OF_PERICENTER": 253.1337, "MEAN_ANOMALY": 106.1514, "EPHEMERIS_TYPE": 0, "CLASSIFICATION_TYPE": "U", "NORAD_CAT_ID": 38163, "ELEMENT_SET_NO": 999, "REV_AT_EPOCH": 24487, "BSTAR": 0.0010133, "MEAN_MOTION_DOT": 1.656e-05, "MEAN_MOTION_DDOT": 0}, "tle": {"line1": "1 38163U 99025ERL 25342.86367632  .00001656  00000+0  10133-2 0  9990", "line2": "2 38163  99.1292  19.3646 0075743 253.1337 106.1514 14.05900576244874"}}, "geometry": {"type": "Point", "coordinates": [-145.49462365025596, 55.92820156432465]}}, {"type": "Feature", "properties": {"norad_id": 38166, "name": "FENGYUN 1C DEB", "group": "fengyun-1c-debris", "lat": 39.80546336891727, "lon": -85.13566095687555, "alt_km": 783.3806058374676, "timestamp": "2025-12-10T05:46:14.112934+00:00", "meta": {"OBJECT_NAME": "FENGYUN 1C DEB", "OBJECT_ID": "1999-025ERP", "EPOCH": "2025-12-09T17:22:41.856384", "MEAN_MOTION": 14.30878923, "ECCENTRICITY": 0.0052657, "INCLINATION": 99.0781, "RA_OF_ASC_NODE": 86.6687, "ARG_OF_PERICENTER": 54.1123, "MEAN_ANOMALY": 306.4931, "EPHEMERIS_TYPE": 0, "CLASSIFICATION_TYPE": "U", "NORAD_CAT_ID": 38166, "ELEMENT_SET_NO": 999, "REV_AT_EPOCH": 63729, "BSTAR": 0.0040536, "MEAN_MOTION_DOT": 0.0001077, "MEAN_MOTION_DDOT": 0}, "tle": {"line1": "1 38166U 99025ERP 25343.72409556  .00010770  00000+0  40536-2 0  9998", "line2": "2 38166  99.0781  86.6687 0052657  54.1123 306.4931 14.30878923637290"}}, "geometry": {"type": "Point", "coordinates": [-85.13566095687555, 39.80546336891727]}}, {"type": "Feature", "properties": {"norad_id": 38169, "name": "FENGYUN 1C DEB", "group": "fengyun-1c-debris", "lat": -81.00518510649343, "lon": 45.39203171741083, "alt_km": 685.6832470165064, "timestamp": "2025-12-10T05:46:14.112944+00:00", "meta": {"OBJECT_NAME": "FENGYUN 1C DEB", "OBJECT_ID": "1999-025ERS", "EPOCH": "2025-11-22T03:51:43.920000", "MEAN_MOTION": 14.70462609, "ECCENTRICITY": 0.00311315, "INCLINATION": 98.9783, "RA_OF_ASC_NODE": 298.2991, "ARG_OF_PERICENTER": 127.7379, "MEAN_ANOMALY": 232.6652, "EPHEMERIS_TYPE": 0, "CLASSIFICATION_TYPE": "U", "NORAD_CAT_ID": 38169, "ELEMENT_SET_NO": 999, "REV_AT_EPOCH": 60966, "BSTAR": 0.0026738914, "MEAN_MOTION_DOT": 0.00016302, "MEAN_MOTION_DDOT": 0}, "tle": {"line1": "1 38169U 99025ERS 25326.16092500  .00016302  00000+0  26739-2 0  9993", "line2": "2 38169  98.9783 298.2991 0031131 127.7379 232.6652 14.70462609609660"}}, "geometry": {"type": "Point", "coordinates": [45.39203171741083, -81.00518510649343]}}, {"type": "Feature", "properties": {"norad_id": 38173, "name": "FENGYUN 1C DEB", "group": "fengyun-1c-debris", "lat": 3.0204789218686665, "lon": 64.82206407106023, "alt_km": 705.577504632427, "timestamp": "2025-12-10T05:46:14.112953+00:00", "meta": {"OBJECT_NAME": "FENGYUN 1C DEB", "OBJECT_ID": "1999-025ERW", "EPOCH": "2025-12-08T11:11:29.864832", "MEAN_MOTION": 14.37138135, "ECCENTRICITY": 0.01627901, "INCLINATION": 98.9997, "RA_OF_ASC_NODE": 242.4873, "ARG_OF_PERICENTER": 125.1423, "MEAN_ANOMALY": 236.5139, "EPHEMERIS_TYPE": 0, "CLASSIFICATION_TYPE": "U", "NORAD_CAT_ID": 38173, "ELEMENT_SET_NO": 999, "REV_AT_EPOCH": 60582, "BSTAR": 0.0013067614, "MEAN_MOTION_DOT": 4.475e-05, "MEAN_MOTION_DDOT": 0}, "tle": {"line1": "1 38173U 99025ERW 25342.46631788  .00004475  00000+0  13068-2 0  9995", "line2": "2 38173  98.9997 242.4873 0162790 125.1423 236.5139 14.37138135605824"}}, "geometry": {"type": "Point", "coordinates": [64.82206407106023, 3.0204789218686665]}}, {"type": "Feature", "properties": {"norad_id": 38493, "name": "FENGYUN 1C DEB", "group": "fengyun-1c-debris", "lat": -24.1970063007738, "lon": -52.07533011228098, "alt_km": 985.7025751418187, "timestamp": "2025-12-10T05:46:14.112963+00:00", "meta": {"OBJECT_NAME": "FENGYUN 1C DEB", "OBJECT_ID": "1999-025ESC", "EPOCH": "2025-12-09T03:27:05.450976", "MEAN_MOTION": 13.62312269, "ECCENTRICITY": 0.04263958, "INCLINATION": 99.0791, "RA_OF_ASC_NODE": 302.7798, "ARG_OF_PERICENTER": 254.5612, "MEAN_ANOMALY": 100.8062, "EPHEMERIS_TYPE": 0, "CLASSIFICATION_TYPE": "U", "NORAD_CAT_ID": 38493, "ELEMENT_SET_NO": 999, "REV_AT_EPOCH": 56449, "BSTAR": 0.00054902893, "MEAN_MOTION_DOT": 7.4e-06, "MEAN_MOTION_DDOT": 0}, "tle": {"line1": "1 38493U 99025ESC 25343.14381309  .00000740  00000+0  54903-3 0  9992", "line2": "2 38493  99.0791 302.7798 0426395 254.5612 100.8062 13.62312269564494"}}, "geometry": {"type": "Point", "coordinates": [-52.07533011228098, -24.1970063007738]}}, {"type": "Feature", "properties": {"norad_id": 38494, "name": "FENGYUN 1C DEB", "group": "fengyun-1c-debris", "lat": 8.409697150920966, "lon": -66.62590976516685, "alt_km": 617.0840156189179, "timestamp": "2025-12-10T05:46:14.112973+00:00", "meta": {"OBJECT_NAME": "FENGYUN 1C DEB", "OBJECT_ID": "1999-025ESD", "EPOCH": "2025-12-08T02:16:42.118752", "MEAN_MOTION": 13.9997104, "ECCENTRICITY": 0.03859665, "INCLINATION": 98.4354, "RA_OF_ASC_NODE": 292.6465, "ARG_OF_PERICENTER": 22.2807, "MEAN_ANOMALY": 339.4632, "EPHEMERIS_TYPE": 0, "CLASSIFICATION_TYPE": "U", "NORAD_CAT_ID": 38494, "ELEMENT_SET_NO": 999, "REV_AT_EPOCH": 7089, "BSTAR": 0.0074301731, "MEAN_MOTION_DOT": 0.00020887, "MEAN_MOTION_DDOT": 0}, "tle": {"line1": "1 38494U 99025ESD 25342.09493193  .00020887  00000+0  74302-2 0  9999", "line2": "2 38494  98.4354 292.6465 0385966  22.2807 339.4632 13.99971040 70892"}}, "geometry": {"type": "Point", "coordinates": [-66.62590976516685, 8.409697150920966]}}, {"type": "Feature", "properties": {"norad_id": 38495, "name": "FENGYUN 1C DEB", "group": "fengyun-1c-debris", "lat": 49.14140446609794, "lon": -10.063176988038462, "alt_km": 1009.7054343929276, "timestamp": "2025-12-10T05:46:14.112983+00:00", "meta": {"OBJECT_NAME": "FENGYUN 1C DEB", "OBJECT_ID": "1999-025ESE", "EPOCH": "2025-12-02T06:20:41.771904", "MEAN_MOTION": 13.69106573, "ECCENTRICITY": 0.0252581, "INCLINATION": 99.1709, "RA_OF_ASC_NODE": 353.1036, "ARG_OF_PERICENTER": 165.9119, "MEAN_ANOMALY": 194.9245, "EPHEMERIS_TYPE": 0, "CLASSIFICATION_TYPE": "U", "NORAD_CAT_ID": 38495, "ELEMENT_SET_NO": 999, "REV_AT_EPOCH": 60969, "BSTAR": 0.0025866, "MEAN_MOTION_DOT": 2.759e-05, "MEAN_MOTION_DDOT": 0}, "tle": {"line1": "1 38495U 99025ESE 25336.26437236  .00002759  00000+0  25866-2 0  9997", "line2": "2 38495  99.1709 353.1036 0252581 165.9119 194.9245 13.69106573609697"}}, "geometry": {"type": "Point", "coordinates": [-10.063176988038462, 49.14140446609794]}}]}